TDRS 11                 
1 39070U 13004A   26063.12246753  .00000070  00000+0  00000+0 0  9999
2 39070   3.3669  29.3465 0003947 350.3765  11.8869  1.00276467 45633
TDRS 12                 
1 39504U 14004A   26063.07757397 -.00000280  00000+0  00000+0 0  9991
2 39504   3.8755  17.2341 0003946 267.3669 224.2614  1.00270188 43229
GPM-CORE                
1 39574U 14009C   26063.14221693  .00015183  00000+0  32831-3 0  9994
2 39574  64.9735 300.0694 0012445 264.5865  95.3856 15.44610484681589
MMS 1                   
1 40482U 15011A   26063.25002314 -.00001952  00000+0  00000+0 0  9996
2 40482  70.7289 350.2286 8412134 165.2963  34.8637  0.28255593  1331
MMS 2                   
1 40483U 15011B   26063.25002314 -.00001952  00000+0  00000+0 0  9997
2 40483  70.7292 350.2307 8412865 165.3024  34.8471  0.28255549  1337
MMS 3                   
1 40484U 15011C   26063.25002314 -.00001952  00000+0  00000+0 0  9998
2 40484  70.7318 350.2349 8412354 165.3013  34.8419  0.28248646  1336
MMS 4                   
1 40485U 15011D   26063.25002314 -.00001952  00000+0  00000+0 0  9999
2 40485  70.7297 350.2305 8411652 165.3039  34.8413  0.28255477  1337
TDRS 13                 
1 42915U 17047A   26063.15470767 -.00000110  00000+0  00000+0 0  9995
2 42915   3.4296   0.0589 0010201  99.2246 106.8409  1.00272185 31294
NOAA 20 (JPSS-1)        
1 43013U 17073A   26062.97812112  .00000103  00000+0  69758-4 0  9998
2 43013  98.7686   3.4223 0000939 145.1836 214.9401 14.19534337429545
